RWASAT-1                
1 44790U 98067QV  20177.52964662 -.00000478  00000-0  00000-0 0  9991
2 44790  51.6453 303.2356 0008560  52.1575  24.5138 15.52867191 33886
AQT-D                   
1 44791U 98067QW  20177.61605691  .00000979  00000-0  23072-4 0  9999
2 44791  51.6455 303.2322 0007390  18.0955 342.0297 15.52757578 33897
NARSSCUBE-1             
1 44792U 98067QX  20177.54477971  .00005032  00000-0  84477-4 0  9991
2 44792  51.6412 302.7470 0005425  45.2385 314.9046 15.53698874 33899
PROGRESS-MS 13          
1 44833U 19085A   20177.54743984  .00000643  00000-0  19557-4 0  9990
2 44833  51.6448 307.0852 0002519  82.7533 354.3691 15.49459678233313
STPSAT-4                
1 45043U 98067QY  20177.56214803  .00001823  00000-0  39938-4 0  9992
2 45043  51.6429 306.6022 0005985  42.1367 318.0081 15.50003083 23083
HARP                    
1 45256U 98067QZ  20177.62151857  .00003671  00000-0  69489-4 0  9991
2 45256  51.6429 305.5073 0007544  32.8216 327.3240 15.51149840 19779
1998-067RA              
1 45257U 98067RA  20177.62099445  .00002888  00000-0  56460-4 0  9990
2 45257  51.6428 305.5003 0008263  35.0955 325.0578 15.51089389 19776
PHOENIX                 
1 45258U 98067RB  20177.56485492  .00002489  00000-0  50033-4 0  9992
2 45258  51.6425 305.8700 0006230  17.3037 342.8164 15.50919197 19739
