<?xml version="1.0" encoding="UTF-8"?>
<ndm xmlns:xsi="https://www.w3.org/2001/XMLSchema-instance" xsi:noNamespaceSchemaLocation="https://sanaregistry.org/r/ndmxml/ndmxml-1.0-master.xsd">
<omm id="CCSDS_OMM_VERS" version="2.0">
<header><CREATION_DATE/><ORIGINATOR/></header><body><segment><metadata><OBJECT_NAME>RWASAT-1</OBJECT_NAME><OBJECT_ID>1998-067QV</OBJECT_ID><CENTER_NAME>EARTH</CENTER_NAME><REF_FRAME>TEME</REF_FRAME><TIME_SYSTEM>UTC</TIME_SYSTEM><MEAN_ELEMENT_THEORY>SGP4</MEAN_ELEMENT_THEORY></metadata><data><meanElements><EPOCH>2020-06-25T12:42:41.467968</EPOCH><MEAN_MOTION>15.52867191</MEAN_MOTION><ECCENTRICITY>.0008560</ECCENTRICITY><INCLINATION>51.6453</INCLINATION><RA_OF_ASC_NODE>303.2356</RA_OF_ASC_NODE><ARG_OF_PERICENTER>52.1575</ARG_OF_PERICENTER><MEAN_ANOMALY>24.5138</MEAN_ANOMALY></meanElements><tleParameters><EPHEMERIS_TYPE>0</EPHEMERIS_TYPE><CLASSIFICATION_TYPE>U</CLASSIFICATION_TYPE><NORAD_CAT_ID>44790</NORAD_CAT_ID><ELEMENT_SET_NO>999</ELEMENT_SET_NO><REV_AT_EPOCH>3388</REV_AT_EPOCH><BSTAR>.00000E-0</BSTAR><MEAN_MOTION_DOT>-4.78E-6</MEAN_MOTION_DOT><MEAN_MOTION_DDOT>0</MEAN_MOTION_DDOT></tleParameters></data></segment></body></omm>
<omm id="CCSDS_OMM_VERS" version="2.0">
<header><CREATION_DATE/><ORIGINATOR/></header><body><segment><metadata><OBJECT_NAME>AQT-D</OBJECT_NAME><OBJECT_ID>1998-067QW</OBJECT_ID><CENTER_NAME>EARTH</CENTER_NAME><REF_FRAME>TEME</REF_FRAME><TIME_SYSTEM>UTC</TIME_SYSTEM><MEAN_ELEMENT_THEORY>SGP4</MEAN_ELEMENT_THEORY></metadata><data><meanElements><EPOCH>2020-06-25T14:47:07.317024</EPOCH><MEAN_MOTION>15.52757578</MEAN_MOTION><ECCENTRICITY>.0007390</ECCENTRICITY><INCLINATION>51.6455</INCLINATION><RA_OF_ASC_NODE>303.2322</RA_OF_ASC_NODE><ARG_OF_PERICENTER>18.0955</ARG_OF_PERICENTER><MEAN_ANOMALY>342.0297</MEAN_ANOMALY></meanElements><tleParameters><EPHEMERIS_TYPE>0</EPHEMERIS_TYPE><CLASSIFICATION_TYPE>U</CLASSIFICATION_TYPE><NORAD_CAT_ID>44791</NORAD_CAT_ID><ELEMENT_SET_NO>999</ELEMENT_SET_NO><REV_AT_EPOCH>3389</REV_AT_EPOCH><BSTAR>.23072E-4</BSTAR><MEAN_MOTION_DOT>9.79E-6</MEAN_MOTION_DOT><MEAN_MOTION_DDOT>0</MEAN_MOTION_DDOT></tleParameters></data></segment></body></omm>
<omm id="CCSDS_OMM_VERS" version="2.0">
<header><CREATION_DATE/><ORIGINATOR/></header><body><segment><metadata><OBJECT_NAME>NARSSCUBE-1</OBJECT_NAME><OBJECT_ID>1998-067QX</OBJECT_ID><CENTER_NAME>EARTH</CENTER_NAME><REF_FRAME>TEME</REF_FRAME><TIME_SYSTEM>UTC</TIME_SYSTEM><MEAN_ELEMENT_THEORY>SGP4</MEAN_ELEMENT_THEORY></metadata><data><meanElements><EPOCH>2020-06-25T13:04:28.966944</EPOCH><MEAN_MOTION>15.53698874</MEAN_MOTION><ECCENTRICITY>.0005425</ECCENTRICITY><INCLINATION>51.6412</INCLINATION><RA_OF_ASC_NODE>302.7470</RA_OF_ASC_NODE><ARG_OF_PERICENTER>45.2385</ARG_OF_PERICENTER><MEAN_ANOMALY>314.9046</MEAN_ANOMALY></meanElements><tleParameters><EPHEMERIS_TYPE>0</EPHEMERIS_TYPE><CLASSIFICATION_TYPE>U</CLASSIFICATION_TYPE><NORAD_CAT_ID>44792</NORAD_CAT_ID><ELEMENT_SET_NO>999</ELEMENT_SET_NO><REV_AT_EPOCH>3389</REV_AT_EPOCH><BSTAR>.84477E-4</BSTAR><MEAN_MOTION_DOT>5.032E-5</MEAN_MOTION_DOT><MEAN_MOTION_DDOT>0</MEAN_MOTION_DDOT></tleParameters></data></segment></body></omm>
<omm id="CCSDS_OMM_VERS" version="2.0">
<header><CREATION_DATE/><ORIGINATOR/></header><body><segment><metadata><OBJECT_NAME>PROGRESS-MS 13</OBJECT_NAME><OBJECT_ID>2019-085A</OBJECT_ID><CENTER_NAME>EARTH</CENTER_NAME><REF_FRAME>TEME</REF_FRAME><TIME_SYSTEM>UTC</TIME_SYSTEM><MEAN_ELEMENT_THEORY>SGP4</MEAN_ELEMENT_THEORY></metadata><data><meanElements><EPOCH>2020-06-25T13:08:18.802176</EPOCH><MEAN_MOTION>15.49459678</MEAN_MOTION><ECCENTRICITY>.0002519</ECCENTRICITY><INCLINATION>51.6448</INCLINATION><RA_OF_ASC_NODE>307.0852</RA_OF_ASC_NODE><ARG_OF_PERICENTER>82.7533</ARG_OF_PERICENTER><MEAN_ANOMALY>354.3691</MEAN_ANOMALY></meanElements><tleParameters><EPHEMERIS_TYPE>0</EPHEMERIS_TYPE><CLASSIFICATION_TYPE>U</CLASSIFICATION_TYPE><NORAD_CAT_ID>44833</NORAD_CAT_ID><ELEMENT_SET_NO>999</ELEMENT_SET_NO><REV_AT_EPOCH>23331</REV_AT_EPOCH><BSTAR>.19557E-4</BSTAR><MEAN_MOTION_DOT>6.43E-6</MEAN_MOTION_DOT><MEAN_MOTION_DDOT>0</MEAN_MOTION_DDOT></tleParameters></data></segment></body></omm>
<omm id="CCSDS_OMM_VERS" version="2.0">
<header><CREATION_DATE/><ORIGINATOR/></header><body><segment><metadata><OBJECT_NAME>STPSAT-4</OBJECT_NAME><OBJECT_ID>1998-067QY</OBJECT_ID><CENTER_NAME>EARTH</CENTER_NAME><REF_FRAME>TEME</REF_FRAME><TIME_SYSTEM>UTC</TIME_SYSTEM><MEAN_ELEMENT_THEORY>SGP4</MEAN_ELEMENT_THEORY></metadata><data><meanElements><EPOCH>2020-06-25T13:29:29.589792</EPOCH><MEAN_MOTION>15.50003083</MEAN_MOTION><ECCENTRICITY>.0005985</ECCENTRICITY><INCLINATION>51.6429</INCLINATION><RA_OF_ASC_NODE>306.6022</RA_OF_ASC_NODE><ARG_OF_PERICENTER>42.1367</ARG_OF_PERICENTER><MEAN_ANOMALY>318.0081</MEAN_ANOMALY></meanElements><tleParameters><EPHEMERIS_TYPE>0</EPHEMERIS_TYPE><CLASSIFICATION_TYPE>U</CLASSIFICATION_TYPE><NORAD_CAT_ID>45043</NORAD_CAT_ID><ELEMENT_SET_NO>999</ELEMENT_SET_NO><REV_AT_EPOCH>2308</REV_AT_EPOCH><BSTAR>.39938E-4</BSTAR><MEAN_MOTION_DOT>1.823E-5</MEAN_MOTION_DOT><MEAN_MOTION_DDOT>0</MEAN_MOTION_DDOT></tleParameters></data></segment></body></omm>
<omm id="CCSDS_OMM_VERS" version="2.0">
<header><CREATION_DATE/><ORIGINATOR/></header><body><segment><metadata><OBJECT_NAME>HARP</OBJECT_NAME><OBJECT_ID>1998-067QZ</OBJECT_ID><CENTER_NAME>EARTH</CENTER_NAME><REF_FRAME>TEME</REF_FRAME><TIME_SYSTEM>UTC</TIME_SYSTEM><MEAN_ELEMENT_THEORY>SGP4</MEAN_ELEMENT_THEORY></metadata><data><meanElements><EPOCH>2020-06-25T14:54:59.204448</EPOCH><MEAN_MOTION>15.51149840</MEAN_MOTION><ECCENTRICITY>.0007544</ECCENTRICITY><INCLINATION>51.6429</INCLINATION><RA_OF_ASC_NODE>305.5073</RA_OF_ASC_NODE><ARG_OF_PERICENTER>32.8216</ARG_OF_PERICENTER><MEAN_ANOMALY>327.3240</MEAN_ANOMALY></meanElements><tleParameters><EPHEMERIS_TYPE>0</EPHEMERIS_TYPE><CLASSIFICATION_TYPE>U</CLASSIFICATION_TYPE><NORAD_CAT_ID>45256</NORAD_CAT_ID><ELEMENT_SET_NO>999</ELEMENT_SET_NO><REV_AT_EPOCH>1977</REV_AT_EPOCH><BSTAR>.69489E-4</BSTAR><MEAN_MOTION_DOT>3.671E-5</MEAN_MOTION_DOT><MEAN_MOTION_DDOT>0</MEAN_MOTION_DDOT></tleParameters></data></segment></body></omm>
<omm id="CCSDS_OMM_VERS" version="2.0">
<header><CREATION_DATE/><ORIGINATOR/></header><body><segment><metadata><OBJECT_NAME>1998-067RA</OBJECT_NAME><OBJECT_ID>1998-067RA</OBJECT_ID><CENTER_NAME>EARTH</CENTER_NAME><REF_FRAME>TEME</REF_FRAME><TIME_SYSTEM>UTC</TIME_SYSTEM><MEAN_ELEMENT_THEORY>SGP4</MEAN_ELEMENT_THEORY></metadata><data><meanElements><EPOCH>2020-06-25T14:54:13.920480</EPOCH><MEAN_MOTION>15.51089389</MEAN_MOTION><ECCENTRICITY>.0008263</ECCENTRICITY><INCLINATION>51.6428</INCLINATION><RA_OF_ASC_NODE>305.5003</RA_OF_ASC_NODE><ARG_OF_PERICENTER>35.0955</ARG_OF_PERICENTER><MEAN_ANOMALY>325.0578</MEAN_ANOMALY></meanElements><tleParameters><EPHEMERIS_TYPE>0</EPHEMERIS_TYPE><CLASSIFICATION_TYPE>U</CLASSIFICATION_TYPE><NORAD_CAT_ID>45257</NORAD_CAT_ID><ELEMENT_SET_NO>999</ELEMENT_SET_NO><REV_AT_EPOCH>1977</REV_AT_EPOCH><BSTAR>.56460E-4</BSTAR><MEAN_MOTION_DOT>2.888E-5</MEAN_MOTION_DOT><MEAN_MOTION_DDOT>0</MEAN_MOTION_DDOT></tleParameters></data></segment></body></omm>
<omm id="CCSDS_OMM_VERS" version="2.0">
<header><CREATION_DATE/><ORIGINATOR/></header><body><segment><metadata><OBJECT_NAME>PHOENIX</OBJECT_NAME><OBJECT_ID>1998-067RB</OBJECT_ID><CENTER_NAME>EARTH</CENTER_NAME><REF_FRAME>TEME</REF_FRAME><TIME_SYSTEM>UTC</TIME_SYSTEM><MEAN_ELEMENT_THEORY>SGP4</MEAN_ELEMENT_THEORY></metadata><data><meanElements><EPOCH>2020-06-25T13:33:23.465088</EPOCH><MEAN_MOTION>15.50919197</MEAN_MOTION><ECCENTRICITY>.0006230</ECCENTRICITY><INCLINATION>51.6425</INCLINATION><RA_OF_ASC_NODE>305.8700</RA_OF_ASC_NODE><ARG_OF_PERICENTER>17.3037</ARG_OF_PERICENTER><MEAN_ANOMALY>342.8164</MEAN_ANOMALY></meanElements><tleParameters><EPHEMERIS_TYPE>0</EPHEMERIS_TYPE><CLASSIFICATION_TYPE>U</CLASSIFICATION_TYPE><NORAD_CAT_ID>45258</NORAD_CAT_ID><ELEMENT_SET_NO>999</ELEMENT_SET_NO><REV_AT_EPOCH>1973</REV_AT_EPOCH><BSTAR>.50033E-4</BSTAR><MEAN_MOTION_DOT>2.489E-5</MEAN_MOTION_DOT><MEAN_MOTION_DDOT>0</MEAN_MOTION_DDOT></tleParameters></data></segment></body></omm>

</ndm>
